IRIDIUM 63              
1 25286U 98021B   25241.17744867  .00000552  00000+0  18126-3 0  9993
2 25286  86.3947  51.4869 0002273  86.8026 273.3431 14.36591362434328
IRIDIUM 69              
1 25319U 98026A   25241.24370361  .00000609  00000+0  18324-3 0  9990
2 25319  86.3924  64.5270 0004048 117.5382 242.6229 14.41025175433581
IRIDIUM 71              
1 25320U 98026B   25241.24112310  .00000493  00000+0  14661-3 0  9991
2 25320  86.3929  59.2062 0002310 146.1718 213.9630 14.41207018434114
IRIDIUM 73              
1 25344U 98032C   25241.12427877  .00000838  00000+0  20353-3 0  9996
2 25344  86.4446  15.8287 0002878  95.3675 264.7859 14.51786296441147
IRIDIUM 82              
1 25467U 98051A   25241.03754548  .00033540  00000+0  87206-3 0  9997
2 25467  86.3608  73.8143 0080188  20.9684 339.4824 15.35464506435124
